CCSDS_OMM_VERS = 2.0
CREATION_DATE  = 
ORIGINATOR     = 

OBJECT_NAME    = COSMOS 2242
OBJECT_ID      = 1993-024A
CENTER_NAME    = EARTH
REF_FRAME      = TEME
TIME_SYSTEM    = UTC
MEAN_ELEMENT_THEORY = SGP/SGP4

EPOCH          = 2026-03-22T04:56:19.618368
MEAN_MOTION    = 14.96599177
ECCENTRICITY   = .00149108
INCLINATION    = 82.5153
RA_OF_ASC_NODE = 254.7412
ARG_OF_PERICENTER = 262.8500
MEAN_ANOMALY   = 97.1027

EPHEMERIS_TYPE = 0
CLASSIFICATION_TYPE = U
NORAD_CAT_ID   = 22626
ELEMENT_SET_NO = 999
REV_AT_EPOCH   = 78226
BSTAR          = .17647692E-3
MEAN_MOTION_DOT = .2039E-4
MEAN_MOTION_DDOT = 0

CCSDS_OMM_VERS = 2.0
CREATION_DATE  = 
ORIGINATOR     = 

OBJECT_NAME    = SL-16 R/B
OBJECT_ID      = 1993-059B
CENTER_NAME    = EARTH
REF_FRAME      = TEME
TIME_SYSTEM    = UTC
MEAN_ELEMENT_THEORY = SGP/SGP4

EPOCH          = 2026-03-22T04:21:23.585472
MEAN_MOTION    = 14.17234829
ECCENTRICITY   = .00178024
INCLINATION    = 70.9930
RA_OF_ASC_NODE = 344.7856
ARG_OF_PERICENTER = 198.4404
MEAN_ANOMALY   = 161.6076

EPHEMERIS_TYPE = 0
CLASSIFICATION_TYPE = U
NORAD_CAT_ID   = 22803
ELEMENT_SET_NO = 999
REV_AT_EPOCH   = 68130
BSTAR          = .10192024E-3
MEAN_MOTION_DOT = .158E-5
MEAN_MOTION_DDOT = 0

CCSDS_OMM_VERS = 2.0
CREATION_DATE  = 
ORIGINATOR     = 

OBJECT_NAME    = ARIANE 40 R/B
OBJECT_ID      = 1993-061H
CENTER_NAME    = EARTH
REF_FRAME      = TEME
TIME_SYSTEM    = UTC
MEAN_ELEMENT_THEORY = SGP/SGP4

EPOCH          = 2026-03-22T04:45:25.301664
MEAN_MOTION    = 14.32867113
ECCENTRICITY   = .0009702
INCLINATION    = 98.4893
RA_OF_ASC_NODE = 149.8377
ARG_OF_PERICENTER = 243.6963
MEAN_ANOMALY   = 116.3225

EPHEMERIS_TYPE = 0
CLASSIFICATION_TYPE = U
NORAD_CAT_ID   = 22830
ELEMENT_SET_NO = 999
REV_AT_EPOCH   = 69589
BSTAR          = .86911924E-4
MEAN_MOTION_DOT = .194E-5
MEAN_MOTION_DDOT = 0

CCSDS_OMM_VERS = 2.0
CREATION_DATE  = 
ORIGINATOR     = 

OBJECT_NAME    = COSMOS 2278
OBJECT_ID      = 1994-023A
CENTER_NAME    = EARTH
REF_FRAME      = TEME
TIME_SYSTEM    = UTC
MEAN_ELEMENT_THEORY = SGP/SGP4

EPOCH          = 2026-03-22T06:10:24.822336
MEAN_MOTION    = 14.14377790
ECCENTRICITY   = .00088709
INCLINATION    = 71.0535
RA_OF_ASC_NODE = 148.8069
ARG_OF_PERICENTER = 352.3850
MEAN_ANOMALY   = 7.7136

EPHEMERIS_TYPE = 0
CLASSIFICATION_TYPE = U
NORAD_CAT_ID   = 23087
ELEMENT_SET_NO = 999
REV_AT_EPOCH   = 64658
BSTAR          = -.95168342E-4
MEAN_MOTION_DOT = -.229E-5
MEAN_MOTION_DDOT = 0

CCSDS_OMM_VERS = 2.0
CREATION_DATE  = 
ORIGINATOR     = 

OBJECT_NAME    = SL-16 R/B
OBJECT_ID      = 1994-023B
CENTER_NAME    = EARTH
REF_FRAME      = TEME
TIME_SYSTEM    = UTC
MEAN_ELEMENT_THEORY = SGP/SGP4

EPOCH          = 2026-03-22T05:27:25.824672
MEAN_MOTION    = 14.15010928
ECCENTRICITY   = .00054755
INCLINATION    = 70.9999
RA_OF_ASC_NODE = 44.5544
ARG_OF_PERICENTER = 273.4520
MEAN_ANOMALY   = 86.5976

EPHEMERIS_TYPE = 0
CLASSIFICATION_TYPE = U
NORAD_CAT_ID   = 23088
ELEMENT_SET_NO = 999
REV_AT_EPOCH   = 64786
BSTAR          = .10887975E-3
MEAN_MOTION_DOT = .163E-5
MEAN_MOTION_DDOT = 0

CCSDS_OMM_VERS = 2.0
CREATION_DATE  = 
ORIGINATOR     = 

OBJECT_NAME    = SL-16 R/B
OBJECT_ID      = 1994-074B
CENTER_NAME    = EARTH
REF_FRAME      = TEME
TIME_SYSTEM    = UTC
MEAN_ELEMENT_THEORY = SGP/SGP4

EPOCH          = 2026-03-22T02:29:57.329664
MEAN_MOTION    = 14.79421564
ECCENTRICITY   = .00067761
INCLINATION    = 97.7092
RA_OF_ASC_NODE = 111.4183
ARG_OF_PERICENTER = 168.4395
MEAN_ANOMALY   = 258.2247

EPHEMERIS_TYPE = 0
CLASSIFICATION_TYPE = U
NORAD_CAT_ID   = 23343
ELEMENT_SET_NO = 999
REV_AT_EPOCH   = 68908
BSTAR          = .68089748E-4
MEAN_MOTION_DOT = .459E-5
MEAN_MOTION_DDOT = 0

CCSDS_OMM_VERS = 2.0
CREATION_DATE  = 
ORIGINATOR     = 

OBJECT_NAME    = SL-16 R/B
OBJECT_ID      = 1994-077B
CENTER_NAME    = EARTH
REF_FRAME      = TEME
TIME_SYSTEM    = UTC
MEAN_ELEMENT_THEORY = SGP/SGP4

EPOCH          = 2026-03-22T01:30:24.303456
MEAN_MOTION    = 14.15567424
ECCENTRICITY   = .00023764
INCLINATION    = 70.9846
RA_OF_ASC_NODE = 326.4602
ARG_OF_PERICENTER = 199.1935
MEAN_ANOMALY   = 160.9099

EPHEMERIS_TYPE = 0
CLASSIFICATION_TYPE = U
NORAD_CAT_ID   = 23405
ELEMENT_SET_NO = 999
REV_AT_EPOCH   = 61798
BSTAR          = .15173633E-3
MEAN_MOTION_DOT = .249E-5
MEAN_MOTION_DDOT = 0

CCSDS_OMM_VERS = 2.0
CREATION_DATE  = 
ORIGINATOR     = 

OBJECT_NAME    = ARIANE 40+ R/B
OBJECT_ID      = 1995-021B
CENTER_NAME    = EARTH
REF_FRAME      = TEME
TIME_SYSTEM    = UTC
MEAN_ELEMENT_THEORY = SGP/SGP4

EPOCH          = 2026-03-22T02:48:44.484192
MEAN_MOTION    = 14.39780923
ECCENTRICITY   = .00079738
INCLINATION    = 98.4475
RA_OF_ASC_NODE = 152.4301
ARG_OF_PERICENTER = 104.2305
MEAN_ANOMALY   = 315.2584

EPHEMERIS_TYPE = 0
CLASSIFICATION_TYPE = U
NORAD_CAT_ID   = 23561
ELEMENT_SET_NO = 999
REV_AT_EPOCH   = 62103
BSTAR          = .10357729E-3
MEAN_MOTION_DOT = .281E-5
MEAN_MOTION_DDOT = 0

CCSDS_OMM_VERS = 2.0
CREATION_DATE  = 
ORIGINATOR     = 

OBJECT_NAME    = SL-16 R/B
OBJECT_ID      = 1995-058B
CENTER_NAME    = EARTH
REF_FRAME      = TEME
TIME_SYSTEM    = UTC
MEAN_ELEMENT_THEORY = SGP/SGP4

EPOCH          = 2026-03-22T06:46:36.024960
MEAN_MOTION    = 14.15500856
ECCENTRICITY   = .00101872
INCLINATION    = 71.0220
RA_OF_ASC_NODE = 153.8192
ARG_OF_PERICENTER = 102.5236
MEAN_ANOMALY   = 257.7028

EPHEMERIS_TYPE = 0
CLASSIFICATION_TYPE = U
NORAD_CAT_ID   = 23705
ELEMENT_SET_NO = 999
REV_AT_EPOCH   = 56963
BSTAR          = -.1308129E-4
MEAN_MOTION_DOT = -.73E-6
MEAN_MOTION_DDOT = 0

CCSDS_OMM_VERS = 2.0
CREATION_DATE  = 
ORIGINATOR     = 

OBJECT_NAME    = SL-16 R/B
OBJECT_ID      = 1996-051B
CENTER_NAME    = EARTH
REF_FRAME      = TEME
TIME_SYSTEM    = UTC
MEAN_ELEMENT_THEORY = SGP/SGP4

EPOCH          = 2026-03-22T04:56:03.444288
MEAN_MOTION    = 14.12419068
ECCENTRICITY   = .00140293
INCLINATION    = 70.7595
RA_OF_ASC_NODE = 148.7493
ARG_OF_PERICENTER = 128.2533
MEAN_ANOMALY   = 231.9851

EPHEMERIS_TYPE = 0
CLASSIFICATION_TYPE = U
NORAD_CAT_ID   = 24298
ELEMENT_SET_NO = 999
REV_AT_EPOCH   = 52341
BSTAR          = .81071271E-4
MEAN_MOTION_DOT = .101E-5
MEAN_MOTION_DDOT = 0

CCSDS_OMM_VERS = 2.0
CREATION_DATE  = 
ORIGINATOR     = 

OBJECT_NAME    = ORBVIEW 2 (SEASTAR)
OBJECT_ID      = 1997-037A
CENTER_NAME    = EARTH
REF_FRAME      = TEME
TIME_SYSTEM    = UTC
MEAN_ELEMENT_THEORY = SGP/SGP4

EPOCH          = 2026-03-22T04:09:35.375040
MEAN_MOTION    = 14.35503381
ECCENTRICITY   = .00026952
INCLINATION    = 98.8588
RA_OF_ASC_NODE = 245.8172
ARG_OF_PERICENTER = 45.4786
MEAN_ANOMALY   = 314.6618

EPHEMERIS_TYPE = 0
CLASSIFICATION_TYPE = U
NORAD_CAT_ID   = 24883
ELEMENT_SET_NO = 999
REV_AT_EPOCH   = 51026
BSTAR          = .11134356E-3
MEAN_MOTION_DOT = .274E-5
MEAN_MOTION_DDOT = 0

CCSDS_OMM_VERS = 2.0
CREATION_DATE  = 
ORIGINATOR     = 

OBJECT_NAME    = SL-16 R/B
OBJECT_ID      = 1998-043G
CENTER_NAME    = EARTH
REF_FRAME      = TEME
TIME_SYSTEM    = UTC
MEAN_ELEMENT_THEORY = SGP/SGP4

EPOCH          = 2026-03-21T20:52:34.341888
MEAN_MOTION    = 14.26052392
ECCENTRICITY   = .00095751
INCLINATION    = 98.8276
RA_OF_ASC_NODE = 34.3210
ARG_OF_PERICENTER = 345.5070
MEAN_ANOMALY   = 14.5834

EPHEMERIS_TYPE = 0
CLASSIFICATION_TYPE = U
NORAD_CAT_ID   = 25400
ELEMENT_SET_NO = 999
REV_AT_EPOCH   = 44072
BSTAR          = .44625309E-4
MEAN_MOTION_DOT = .61E-6
MEAN_MOTION_DDOT = 0

